{"type": "FeatureCollection", "fonte": "SGB/CPRM rigeo: doc/19365 (Cuiabá 2014) e doc/20780 (Várzea Grande 2018)", "features": [{"type": "Feature", "properties": {"mun": "Cuiabá", "local": "Av. Miguel Sutil (Viaduto)", "setor": "MT_CB_SR_01_CPRM", "tipo": "Deslizamento", "risco": "Muito Alto", "desc": "Corte de Talude para construção de Viaduto. Deslizamento de terra e rochas. Potencail de mais escorregamentos", "edif": 12, "pess": 60, "data": "2014-09-22"}, "geometry": {"type": "MultiPolygon", "coordinates": [[[[-56.094991, -15.579064], [-56.096257, -15.579269], [-56.096326, -15.579167], [-56.096342, -15.579032], [-56.09626, -15.578958], [-56.096178, -15.578931], [-56.096019, -15.578816], [-56.095662, -15.578693], [-56.09534, -15.578646], [-56.09514, -15.578652], [-56.094879, -15.578679], [-56.094898, -15.578785], [-56.094902, -15.578945], [-56.094991, -15.579064]]]]}}, {"type": "Feature", "properties": {"mun": "Cuiabá", "local": "Jd. Vitória", "setor": "MT_CB_SR_02_CPRM", "tipo": "Erosão", "risco": "Alto", "desc": "Processo de voçorocamento e ravinamento instalado as margens do córrego Baú. Crescimento do processo favorecido pela posição das ruas em relação ao córrego", "edif": 30, "pess": 150, "data": "2014-09-22"}, "geometry": {"type": "MultiPolygon", "coordinates": [[[[-56.068913, -15.545634], [-56.068141, -15.546182], [-56.067656, -15.546331], [-56.066892, -15.546515], [-56.067593, -15.546509], [-56.068171, -15.546408], [-56.06875, -15.545919], [-56.069166, -15.545495], [-56.0702, -15.544259], [-56.070648, -15.543508], [-56.071448, -15.542271], [-56.071623, -15.541736], [-56.071508, -15.541701], [-56.071088, -15.542305], [-56.070731, -15.542976], [-56.070436, -15.543482], [-56.069938, -15.54438], [-56.069469, -15.544898], [-56.068913, -15.545634]]]]}}, {"type": "Feature", "properties": {"mun": "Cuiabá", "local": "Bairro Getúlio Vargas", "setor": "MT_CB_SR_03_CPRM", "tipo": "inundação", "risco": "Alto", "desc": "Residencial de 4.800 casas construído à montante do polígono, nas cabeceiras do córrego. Situação de inundação aumentou após a construção do loteamento. APP ocupada", "edif": 210, "pess": 1050, "data": "2014-09-22"}, "geometry": {"type": "MultiPolygon", "coordinates": [[[[-56.033071, -15.648609], [-56.032653, -15.648697], [-56.031555, -15.649622], [-56.03134, -15.649776], [-56.031004, -15.649861], [-56.030514, -15.649935], [-56.030198, -15.6501], [-56.029711, -15.650322], [-56.029628, -15.65057], [-56.030112, -15.65063], [-56.030233, -15.650702], [-56.03058, -15.650639], [-56.030967, -15.650602], [-56.031353, -15.650645], [-56.031388, -15.650869], [-56.031353, -15.65132], [-56.03099, -15.651595], [-56.03088, -15.651751], [-56.030837, -15.652253], [-56.031173, -15.652367], [-56.031397, -15.652022], [-56.031606, -15.651602], [-56.031908, -15.650637], [-56.031912, -15.649959], [-56.033012, -15.648828], [-56.033071, -15.648609]]]]}}, {"type": "Feature", "properties": {"mun": "Cuiabá", "local": "Corr. Barbado", "setor": "MT_CB_SR_04_CPRM", "tipo": "inundação", "risco": "Alto", "desc": "Malha urbana cresceu em volta do córrego. Impermeabilização da microbacia, deposição de esgoto e lixo no leito do córrego. Ocupação da APP. Episódios regulares de inundação e remoção de moradores. Erosão fluvial associada", "edif": 23, "pess": 115, "data": "2014-09-22"}, "geometry": {"type": "MultiPolygon", "coordinates": [[[[-56.077686, -15.626239], [-56.077494, -15.626371], [-56.077421, -15.626436], [-56.07798, -15.627134], [-56.078373, -15.627643], [-56.078724, -15.628206], [-56.079017, -15.627934], [-56.078834, -15.627722], [-56.078628, -15.627484], [-56.078428, -15.627263], [-56.078273, -15.62704], [-56.078151, -15.626872], [-56.077908, -15.626573], [-56.077686, -15.626239]]]]}}, {"type": "Feature", "properties": {"mun": "Cuiabá", "local": "Corr. São Gonçalo", "setor": "MT_CB_SR_05_CPRM", "tipo": "inundação", "risco": "Alto", "desc": "Malha urbana cresceu em volta do córrego. Impermeabilização da microbacia, deposição de esgoto e lixo no leito do córrego. Ocupação da APP. Episódios regulares de inundação e remoção de moradores. Erosão fluvial associada", "edif": 25, "pess": 125, "data": "2014-09-22"}, "geometry": {"type": "MultiPolygon", "coordinates": [[[[-56.066531, -15.645922], [-56.065769, -15.645016], [-56.064965, -15.645262], [-56.062901, -15.644561], [-56.059911, -15.643792], [-56.058155, -15.643804], [-56.057898, -15.644471], [-56.059101, -15.644679], [-56.060008, -15.644765], [-56.060665, -15.644952], [-56.061831, -15.645698], [-56.062992, -15.646253], [-56.064233, -15.6465], [-56.065636, -15.646183], [-56.066531, -15.645922]]]]}}, {"type": "Feature", "properties": {"mun": "Cuiabá", "local": "Pqe Atalaia", "setor": "MT_CB_SR_06_CPRM", "tipo": "inundação", "risco": "Alto", "desc": "Soerguimento do lençol freático associado à dinâmica do Rio Cuiabá, provocando o isolamento de um grupo de chacaras (área urbana segundo plano diretor)", "edif": 30, "pess": 150, "data": "2014-09-22"}, "geometry": {"type": "MultiPolygon", "coordinates": [[[[-56.067279, -15.667507], [-56.068, -15.66331], [-56.067582, -15.661505], [-56.067072, -15.660121], [-56.066266, -15.659828], [-56.065738, -15.659779], [-56.065352, -15.660777], [-56.065103, -15.662393], [-56.06471, -15.663247], [-56.064448, -15.664554], [-56.064316, -15.665496], [-56.06435, -15.666341], [-56.064655, -15.667119], [-56.065703, -15.667544], [-56.066715, -15.667633], [-56.067279, -15.667507]]]]}}, {"type": "Feature", "properties": {"mun": "Cuiabá", "local": "Corr Gumitá", "setor": "MT_CB_SR_07_CPRM", "tipo": "inundação", "risco": "Alto", "desc": "Malha urbana cresceu em volta do córrego. Impermeabilização da microbacia, deposição de esgoto e lixo no leito do córrego. Ocupação da APP. Episódios regulares de inundação e remoção de moradores. Erosão fluvial associada", "edif": 50, "pess": 250, "data": "2014-09-22"}, "geometry": {"type": "MultiPolygon", "coordinates": [[[[-56.044801, -15.577124], [-56.044939, -15.576714], [-56.043926, -15.576728], [-56.042214, -15.576391], [-56.0393, -15.575858], [-56.038, -15.576154], [-56.037698, -15.576636], [-56.037977, -15.577051], [-56.038498, -15.577023], [-56.039549, -15.576788], [-56.040126, -15.577013], [-56.041064, -15.576941], [-56.042071, -15.576985], [-56.043343, -15.57725], [-56.044801, -15.577124]]]]}}, {"type": "Feature", "properties": {"mun": "Cuiabá", "local": "Av. Gonçalo Barros", "setor": "MT_CB_SR_08_CPRM", "tipo": "inundação", "risco": "Alto", "desc": "Malha urbana cresceu em volta do córrego. Impermeabilização da microbacia, deposição de esgoto e lixo no leito do córrego. Ocupação da APP. Episódios regulares de inundação e remoção de moradores. Erosão fluvial associada", "edif": 20, "pess": 100, "data": "2014-09-22"}, "geometry": {"type": "MultiPolygon", "coordinates": [[[[-56.071535, -15.589073], [-56.072002, -15.588272], [-56.071505, -15.587851], [-56.070821, -15.588584], [-56.070705, -15.588685], [-56.070552, -15.588859], [-56.070592, -15.589092], [-56.070829, -15.58929], [-56.071263, -15.589457], [-56.071535, -15.589073]]]]}}, {"type": "Feature", "properties": {"mun": "Várzea Grande", "local": "Rua C I,  Bairro Jardim Paula I", "setor": "MT_VARZEAG_SR_1_CPRM", "tipo": "Inundação", "risco": "Alto", "desc": "Inundação em área de influência na planicie de córrego", "edif": 5, "pess": 20, "data": "2018-08-10"}, "geometry": {"type": "MultiPolygon", "coordinates": [[[[-56.160594, -15.649798], [-56.160406, -15.649954], [-56.160221, -15.650472], [-56.160211, -15.650757], [-56.160252, -15.651089], [-56.1605, -15.651086], [-56.160494, -15.651019], [-56.160433, -15.650895], [-56.160345, -15.650713], [-56.160393, -15.650559], [-56.160381, -15.650267], [-56.160713, -15.649845], [-56.160594, -15.649798]]]]}}, {"type": "Feature", "properties": {"mun": "Várzea Grande", "local": "Rua D I,  Bairro Jardim Paula I", "setor": "MT_VARZEAG_SR_2_CPRM", "tipo": "Inundação", "risco": "Alto", "desc": "Inundação em área de influência na planicie de córrego", "edif": 2, "pess": 8, "data": "2018-08-10"}, "geometry": {"type": "MultiPolygon", "coordinates": [[[[-56.161919, -15.65135], [-56.161474, -15.65121], [-56.161371, -15.651326], [-56.161623, -15.651425], [-56.161871, -15.651475], [-56.161919, -15.65135]]]]}}, {"type": "Feature", "properties": {"mun": "Várzea Grande", "local": "Rua D I,  Bairro Jardim Paula I", "setor": "MT_VARZEAG_SR_3_CPRM", "tipo": "Inundação", "risco": "Alto", "desc": "Inundação em área de influência na planicie de córrego", "edif": 18, "pess": 72, "data": "2018-08-10"}, "geometry": {"type": "MultiPolygon", "coordinates": [[[[-56.160846, -15.652341], [-56.160875, -15.652176], [-56.160653, -15.65207], [-56.160238, -15.651814], [-56.159839, -15.651763], [-56.159074, -15.651534], [-56.158693, -15.651483], [-56.158366, -15.651449], [-56.157788, -15.65149], [-56.157427, -15.651656], [-56.157142, -15.651772], [-56.15694, -15.651793], [-56.156862, -15.652016], [-56.15703, -15.652216], [-56.15743, -15.652175], [-56.157726, -15.651939], [-56.158209, -15.651811], [-56.158359, -15.651861], [-56.15869, -15.651723], [-56.158762, -15.651808], [-56.159031, -15.651875], [-56.159241, -15.651851], [-56.159537, -15.651842], [-56.159859, -15.651982], [-56.160158, -15.651998], [-56.160377, -15.652153], [-56.160846, -15.652341]]]]}}, {"type": "Feature", "properties": {"mun": "Várzea Grande", "local": "Rua Sebastião Ramos, Jd Paula I", "setor": "MT_VARZEAG_SR_4_CPRM", "tipo": "Inundação", "risco": "Alto", "desc": "Inundação em área de influência na planicie de córrego", "edif": 3, "pess": 12, "data": "2018-08-10"}, "geometry": {"type": "MultiPolygon", "coordinates": [[[[-56.155307, -15.652035], [-56.155124, -15.652058], [-56.154847, -15.652187], [-56.15469, -15.652292], [-56.15478, -15.652457], [-56.154834, -15.652557], [-56.155145, -15.652388], [-56.155334, -15.652301], [-56.155484, -15.652293], [-56.155411, -15.652056], [-56.155307, -15.652035]]]]}}, {"type": "Feature", "properties": {"mun": "Várzea Grande", "local": "Rua N, Jardim Paula I", "setor": "MT_VARZEAG_SR_5_CPRM", "tipo": "Inundação", "risco": "Alto", "desc": "Inundação em área de influência na planicie de córrego", "edif": 3, "pess": 12, "data": "2018-08-10"}, "geometry": {"type": "MultiPolygon", "coordinates": [[[[-56.153856, -15.652996], [-56.15378, -15.652845], [-56.153549, -15.652984], [-56.15342, -15.65316], [-56.153386, -15.653274], [-56.153469, -15.65334], [-56.153637, -15.65325], [-56.1538, -15.653132], [-56.153856, -15.652996]]]]}}, {"type": "Feature", "properties": {"mun": "Várzea Grande", "local": "Rua Volutários da Pátria, Jd Paula II", "setor": "MT_VARZEAG_SR_6_CPRM", "tipo": "Inundação", "risco": "Alto", "desc": "Inundação em área de influência na planicie de córrego", "edif": 12, "pess": 48, "data": "2018-08-10"}, "geometry": {"type": "MultiPolygon", "coordinates": [[[[-56.149318, -15.659432], [-56.14921, -15.659391], [-56.149038, -15.65973], [-56.14894, -15.659923], [-56.148833, -15.660034], [-56.148589, -15.660392], [-56.148321, -15.660427], [-56.148043, -15.660616], [-56.147823, -15.66084], [-56.147453, -15.661232], [-56.147346, -15.66149], [-56.147078, -15.661759], [-56.146751, -15.662098], [-56.146482, -15.662129], [-56.146343, -15.662398], [-56.146431, -15.662455], [-56.146467, -15.662477], [-56.146517, -15.662494], [-56.146552, -15.662492], [-56.146589, -15.662484], [-56.14669, -15.662456], [-56.146766, -15.662442], [-56.146826, -15.662428], [-56.146988, -15.662374], [-56.147158, -15.662329], [-56.147456, -15.661783], [-56.14773, -15.661592], [-56.147886, -15.661454], [-56.148156, -15.661184], [-56.148472, -15.660798], [-56.148735, -15.660515], [-56.149015, -15.660024], [-56.149181, -15.65975], [-56.149318, -15.659432]]]]}}, {"type": "Feature", "properties": {"mun": "Várzea Grande", "local": "Rua Itatiaia, Jd Paula II", "setor": "MT_VARZEAG_SR_7_CPRM", "tipo": "Inundação", "risco": "Alto", "desc": "Inundação em área de influência na planicie de córrego", "edif": 10, "pess": 40, "data": "2018-08-10"}, "geometry": {"type": "MultiPolygon", "coordinates": [[[[-56.146585, -15.665225], [-56.146692, -15.665009], [-56.146464, -15.664642], [-56.146267, -15.66499], [-56.146213, -15.665159], [-56.14547, -15.665608], [-56.145263, -15.665682], [-56.144999, -15.665881], [-56.144764, -15.665918], [-56.144569, -15.665918], [-56.144379, -15.6659], [-56.144398, -15.666006], [-56.144441, -15.666111], [-56.144779, -15.666144], [-56.145066, -15.665978], [-56.145316, -15.665886], [-56.145489, -15.665845], [-56.145745, -15.665661], [-56.145961, -15.665605], [-56.1462, -15.665384], [-56.146585, -15.665225]]]]}}, {"type": "Feature", "properties": {"mun": "Várzea Grande", "local": "Rua D 3, Jardim Paula II", "setor": "MT_VARZEAG_SR_8_CPRM", "tipo": "Inundação", "risco": "Alto", "desc": "Inundação em área de influência na planicie de córrego", "edif": 3, "pess": 12, "data": "2018-08-10"}, "geometry": {"type": "MultiPolygon", "coordinates": [[[[-56.146333, -15.667175], [-56.146242, -15.667137], [-56.14616, -15.66735], [-56.14613, -15.66745], [-56.146104, -15.667616], [-56.146129, -15.667649], [-56.146201, -15.667619], [-56.146263, -15.667552], [-56.146275, -15.667495], [-56.146224, -15.667421], [-56.146333, -15.667175]]]]}}, {"type": "Feature", "properties": {"mun": "Várzea Grande", "local": "Lagoa da Construmat, Bairro Ponte Nova", "setor": "MT_VARZEAG_SR_9_CPRM", "tipo": "Alagamento", "risco": "Alto", "desc": "Alagamento/Inundação em área de influência lagoas, áreas de descargas de córregos", "edif": 12, "pess": 48, "data": "2018-08-10"}, "geometry": {"type": "MultiPolygon", "coordinates": [[[[-56.110316, -15.626665], [-56.108928, -15.625337], [-56.108703, -15.624867], [-56.108641, -15.624654], [-56.10841, -15.624461], [-56.107814, -15.623969], [-56.107675, -15.62435], [-56.108111, -15.624782], [-56.107994, -15.624933], [-56.10806, -15.625195], [-56.108279, -15.625337], [-56.108428, -15.625558], [-56.108561, -15.625663], [-56.108777, -15.625869], [-56.108998, -15.626185], [-56.10919, -15.626341], [-56.109611, -15.626265], [-56.110178, -15.626852], [-56.110316, -15.626665]]]]}}, {"type": "Feature", "properties": {"mun": "Várzea Grande", "local": "Rua Oswaldo Cruz, Bairro Cohab Jaime Campos", "setor": "MT_VARZEAG_SR_10_CPRM", "tipo": "Alagamento", "risco": "Alto", "desc": "Alagamento/Inundação em área de influência lagoas, áreas de descargas de córregos", "edif": 30, "pess": 120, "data": "2018-08-10"}, "geometry": {"type": "MultiPolygon", "coordinates": [[[[-56.100542, -15.652954], [-56.099849, -15.653013], [-56.099899, -15.65331], [-56.100783, -15.653345], [-56.101414, -15.653345], [-56.101691, -15.653428], [-56.101921, -15.653627], [-56.102304, -15.654031], [-56.102324, -15.654318], [-56.10214, -15.654608], [-56.102066, -15.654816], [-56.101952, -15.65492], [-56.101465, -15.654874], [-56.10103, -15.654884], [-56.100706, -15.65474], [-56.100502, -15.654641], [-56.100266, -15.654625], [-56.100149, -15.654756], [-56.100056, -15.654868], [-56.100075, -15.655007], [-56.100388, -15.654982], [-56.10055, -15.654981], [-56.100858, -15.654972], [-56.101158, -15.655021], [-56.101474, -15.655002], [-56.1018, -15.654995], [-56.102025, -15.655008], [-56.102191, -15.654963], [-56.102262, -15.655107], [-56.102339, -15.655232], [-56.10253, -15.655063], [-56.102592, -15.654849], [-56.102693, -15.654873], [-56.102853, -15.654902], [-56.102982, -15.654982], [-56.103155, -15.654999], [-56.103236, -15.654848], [-56.102852, -15.65465], [-56.102578, -15.654582], [-56.102467, -15.654423], [-56.102536, -15.654245], [-56.102672, -15.654053], [-56.102669, -15.653806], [-56.102522, -15.653624], [-56.102257, -15.653405], [-56.102008, -15.653229], [-56.101798, -15.65307], [-56.101493, -15.65293], [-56.100542, -15.652954]]]]}}, {"type": "Feature", "properties": {"mun": "Várzea Grande", "local": "Rua Sete, Residencial Noise Curvo de Arruda", "setor": "MT_VARZEAG_SR_11_CPRM", "tipo": "Inundação", "risco": "Alto", "desc": "Inundação em área de influência na planicie de córrego", "edif": 15, "pess": 60, "data": "2018-08-10"}, "geometry": {"type": "MultiPolygon", "coordinates": [[[[-56.095349, -15.677971], [-56.095964, -15.676701], [-56.096449, -15.675713], [-56.096185, -15.675584], [-56.096033, -15.676058], [-56.095732, -15.676493], [-56.095568, -15.676815], [-56.095309, -15.677097], [-56.095278, -15.677256], [-56.095067, -15.677752], [-56.095349, -15.677971]]]]}}, {"type": "Feature", "properties": {"mun": "Várzea Grande", "local": "Avenida 31 de Março, Parque do Lago", "setor": "MT_VARZEAG_SR_12_CPRM", "tipo": "Inundação", "risco": "Alto", "desc": "Inundação em área de influência na planicie de córrego", "edif": 3, "pess": 12, "data": "2018-08-10"}, "geometry": {"type": "MultiPolygon", "coordinates": [[[[-56.097981, -15.665695], [-56.098214, -15.665221], [-56.09808, -15.665173], [-56.098002, -15.665265], [-56.097901, -15.665136], [-56.097775, -15.665072], [-56.09762, -15.665239], [-56.097755, -15.665539], [-56.097751, -15.66559], [-56.097981, -15.665695]]]]}}, {"type": "Feature", "properties": {"mun": "Várzea Grande", "local": "Rua Juscelino Reinner, Bairro da Manga", "setor": "MT_VARZEAG_SR_13_CPRM", "tipo": "Inundação", "risco": "Alto", "desc": "Inundação em área de influência na planicie de córrego", "edif": 3, "pess": 12, "data": "2018-08-10"}, "geometry": {"type": "MultiPolygon", "coordinates": [[[[-56.11224, -15.637564], [-56.111982, -15.637752], [-56.11215, -15.637984], [-56.112299, -15.637889], [-56.112453, -15.63772], [-56.1124, -15.637628], [-56.11224, -15.637564]]]]}}, {"type": "Feature", "properties": {"mun": "Várzea Grande", "local": "Travessa Ipiranga, Bairro da Manga", "setor": "MT_VARZEAG_SR_14_CPRM", "tipo": "Inundação", "risco": "Alto", "desc": "Inundação em área de influência na planicie de córrego", "edif": 12, "pess": 48, "data": "2018-08-10"}, "geometry": {"type": "MultiPolygon", "coordinates": [[[[-56.110814, -15.633747], [-56.110942, -15.633549], [-56.11091, -15.633412], [-56.110871, -15.63328], [-56.11078, -15.63304], [-56.110901, -15.632907], [-56.110956, -15.63276], [-56.111105, -15.632677], [-56.11121, -15.632361], [-56.11131, -15.632041], [-56.111382, -15.631792], [-56.11141, -15.631346], [-56.1114, -15.631123], [-56.111419, -15.630845], [-56.11139, -15.630562], [-56.111358, -15.630464], [-56.111228, -15.630324], [-56.111089, -15.630246], [-56.111038, -15.630358], [-56.111127, -15.630491], [-56.111313, -15.630602], [-56.111338, -15.630782], [-56.111272, -15.630993], [-56.111252, -15.631425], [-56.11115, -15.63185], [-56.111145, -15.632191], [-56.111007, -15.632458], [-56.110856, -15.632677], [-56.110667, -15.632785], [-56.110573, -15.63297], [-56.110605, -15.633204], [-56.11069, -15.63348], [-56.110814, -15.633747]]]]}}, {"type": "Feature", "properties": {"mun": "Várzea Grande", "local": "Rua Padre João Panaroto, Bairro da Manga", "setor": "MT_VARZEAG_SR_15_CPRM", "tipo": "Inundação", "risco": "Alto", "desc": "Inundação em área de influência na planicie de córrego", "edif": 8, "pess": 32, "data": "2018-08-10"}, "geometry": {"type": "MultiPolygon", "coordinates": [[[[-56.115255, -15.635101], [-56.114377, -15.634289], [-56.114212, -15.634479], [-56.114278, -15.634543], [-56.11446, -15.634677], [-56.114636, -15.634778], [-56.114718, -15.634889], [-56.114882, -15.634985], [-56.115025, -15.635059], [-56.115107, -15.635206], [-56.115233, -15.635349], [-56.115479, -15.635454], [-56.115583, -15.63566], [-56.115709, -15.635971], [-56.115735, -15.636245], [-56.115827, -15.636371], [-56.115941, -15.636528], [-56.116022, -15.636596], [-56.116065, -15.636638], [-56.116143, -15.636534], [-56.116193, -15.636486], [-56.11596, -15.636192], [-56.115802, -15.635897], [-56.115615, -15.635481], [-56.115255, -15.635101]]]]}}, {"type": "Feature", "properties": {"mun": "Várzea Grande", "local": "Rua Manoel de Paula, Bairro Vila Ipase", "setor": "MT_VARZEAG_SR_16_CPRM", "tipo": "Inundação", "risco": "Alto", "desc": "Inundação em área de influência na planicie de córrego", "edif": 4, "pess": 16, "data": "2018-08-10"}, "geometry": {"type": "MultiPolygon", "coordinates": [[[[-56.119451, -15.663534], [-56.119857, -15.664182], [-56.119935, -15.664109], [-56.120004, -15.663993], [-56.120007, -15.663907], [-56.119962, -15.663817], [-56.119877, -15.66371], [-56.119675, -15.663362], [-56.119451, -15.663534]]]]}}, {"type": "Feature", "properties": {"mun": "Várzea Grande", "local": "Rua Cartola, Bairro Santa Maria I", "setor": "MT_VARZEAG_SR_17_CPRM", "tipo": "Inundação", "risco": "Alto", "desc": "Inundação em área de influência na planicie de córrego", "edif": 12, "pess": 48, "data": "2018-08-10"}, "geometry": {"type": "MultiPolygon", "coordinates": [[[[-56.126237, -15.685066], [-56.12626, -15.685512], [-56.126722, -15.685143], [-56.12656, -15.684876], [-56.126519, -15.684569], [-56.126496, -15.684192], [-56.1263, -15.683787], [-56.126156, -15.683875], [-56.126029, -15.684003], [-56.125844, -15.684142], [-56.125954, -15.684414], [-56.126104, -15.684703], [-56.126237, -15.685066]]]]}}, {"type": "Feature", "properties": {"mun": "Várzea Grande", "local": "Rua Marajó, Bairro Jardim dos Estados", "setor": "MT_VARZEAG_SR_18_CPRM", "tipo": "Inundação", "risco": "Alto", "desc": "Inundação em área de influência na planicie de córrego", "edif": 15, "pess": 60, "data": "2018-08-10"}, "geometry": {"type": "MultiPolygon", "coordinates": [[[[-56.172811, -15.638926], [-56.172116, -15.637612], [-56.171881, -15.637373], [-56.171628, -15.637246], [-56.171396, -15.637191], [-56.17128, -15.637165], [-56.171266, -15.637062], [-56.171279, -15.63681], [-56.170977, -15.636798], [-56.170969, -15.636968], [-56.170933, -15.637157], [-56.171093, -15.637251], [-56.171207, -15.637356], [-56.171207, -15.637574], [-56.171401, -15.637626], [-56.171699, -15.637666], [-56.171921, -15.637676], [-56.17206, -15.637918], [-56.172239, -15.638242], [-56.172371, -15.638395], [-56.172446, -15.638651], [-56.172491, -15.638912], [-56.172811, -15.638926]]]]}}, {"type": "Feature", "properties": {"mun": "Várzea Grande", "local": "Avenida Z, Bairro Mapim", "setor": "MT_VARZEAG_SR_19_CPRM", "tipo": "Inundação", "risco": "Alto", "desc": "Inundação em área de influência na planicie de córrego", "edif": 14, "pess": 56, "data": "2018-08-10"}, "geometry": {"type": "MultiPolygon", "coordinates": [[[[-56.166081, -15.630271], [-56.165769, -15.630913], [-56.166085, -15.63087], [-56.166213, -15.630553], [-56.16632, -15.630317], [-56.166333, -15.630034], [-56.166202, -15.62976], [-56.165928, -15.629255], [-56.165653, -15.628766], [-56.165435, -15.628303], [-56.165187, -15.627865], [-56.165033, -15.627688], [-56.164695, -15.627491], [-56.164599, -15.627144], [-56.164376, -15.626853], [-56.164055, -15.626691], [-56.16388, -15.626606], [-56.16389, -15.626906], [-56.164143, -15.627236], [-56.164346, -15.627452], [-56.164579, -15.627761], [-56.16482, -15.627967], [-56.164877, -15.628144], [-56.16506, -15.628293], [-56.165222, -15.6286], [-56.165366, -15.628775], [-56.165518, -15.629025], [-56.16563, -15.629255], [-56.165705, -15.629466], [-56.165818, -15.629621], [-56.166028, -15.629814], [-56.166122, -15.630016], [-56.166132, -15.630034], [-56.166081, -15.630271]]]]}}, {"type": "Feature", "properties": {"mun": "Várzea Grande", "local": "Rua Dom, Bairro Mangabeiras", "setor": "MT_VARZEAG_SR_20_CPRM", "tipo": "Inundação", "risco": "Alto", "desc": "Inundação em área de influência na planicie de córrego", "edif": 12, "pess": 48, "data": "2018-08-10"}, "geometry": {"type": "MultiPolygon", "coordinates": [[[[-56.178982, -15.629227], [-56.178341, -15.628688], [-56.178381, -15.628418], [-56.178183, -15.628124], [-56.177968, -15.627743], [-56.177788, -15.627719], [-56.177501, -15.627545], [-56.177155, -15.627282], [-56.176784, -15.626932], [-56.176537, -15.626583], [-56.176305, -15.626447], [-56.176214, -15.626583], [-56.176322, -15.626821], [-56.176512, -15.627075], [-56.176901, -15.627449], [-56.177025, -15.62768], [-56.17738, -15.628006], [-56.177832, -15.628459], [-56.177964, -15.628721], [-56.178251, -15.629102], [-56.178571, -15.629347], [-56.178834, -15.629489], [-56.178982, -15.629227]]]]}}, {"type": "Feature", "properties": {"mun": "Várzea Grande", "local": "Rua Torrência das Flores, Bairro 23 de Setembro", "setor": "MT_VARZEAG_SR_21_CPRM", "tipo": "Inundação", "risco": "Muito alto", "desc": "Inundação em área de influência na planicie de córrego", "edif": 4, "pess": 16, "data": "2018-08-10"}, "geometry": {"type": "MultiPolygon", "coordinates": [[[[-56.13201, -15.637284], [-56.131733, -15.63685], [-56.131583, -15.636631], [-56.131631, -15.636312], [-56.131509, -15.63628], [-56.131404, -15.636476], [-56.131182, -15.636551], [-56.131264, -15.6367], [-56.13135, -15.636806], [-56.131445, -15.636906], [-56.131623, -15.637176], [-56.131786, -15.637423], [-56.13201, -15.637284]]]]}}, {"type": "Feature", "properties": {"mun": "Várzea Grande", "local": "Rua Marcelândia, Bairro Panorama", "setor": "MT_VARZEAG_SR_22_CPRM", "tipo": "Inundação", "risco": "Muito alto", "desc": "Inundação em área de influência na planicie de córrego", "edif": 3, "pess": 12, "data": "2018-08-10"}, "geometry": {"type": "MultiPolygon", "coordinates": [[[[-56.144246, -15.644804], [-56.144379, -15.64474], [-56.144325, -15.644641], [-56.144276, -15.644589], [-56.14422, -15.644551], [-56.144143, -15.644577], [-56.144139, -15.644628], [-56.14417, -15.644684], [-56.144191, -15.644742], [-56.144246, -15.644804]]]]}}, {"type": "Feature", "properties": {"mun": "Várzea Grande", "local": "Avenida Transoceânica, Bairro Santa Terezinha", "setor": "MT_VARZEAG_SR_23_CPRM", "tipo": "Inundação", "risco": "Alto", "desc": "Inundação em área de influência na planicie de córrego", "edif": 4, "pess": 16, "data": "2018-08-10"}, "geometry": {"type": "MultiPolygon", "coordinates": [[[[-56.14173, -15.631992], [-56.141769, -15.631868], [-56.141661, -15.631856], [-56.141575, -15.631969], [-56.14143, -15.631977], [-56.141402, -15.632097], [-56.141374, -15.632217], [-56.14134, -15.63236], [-56.14144, -15.632366], [-56.141494, -15.632227], [-56.141643, -15.632132], [-56.14173, -15.631992]]]]}}, {"type": "Feature", "properties": {"mun": "Várzea Grande", "local": "Travessa do Xá, Bairro Vila Arthur", "setor": "MT_VARZEAG_SR_24_CPRM", "tipo": "Inundação", "risco": "Alto", "desc": "Inundação em área de influência na planicie de córrego", "edif": 4, "pess": 16, "data": "2018-08-10"}, "geometry": {"type": "MultiPolygon", "coordinates": [[[[-56.147279, -15.633615], [-56.147374, -15.633529], [-56.147317, -15.633432], [-56.147193, -15.633319], [-56.147122, -15.633263], [-56.147022, -15.633265], [-56.146945, -15.633356], [-56.14712, -15.633545], [-56.147214, -15.633609], [-56.147279, -15.633615]]]]}}, {"type": "Feature", "properties": {"mun": "Várzea Grande", "local": "Rua Lara, Bairro Jardim Glória", "setor": "MT_VARZEAG_SR_25_CPRM", "tipo": "Inundação", "risco": "Alto", "desc": "Inundação em área de influência na planicie de córrego", "edif": 2, "pess": 8, "data": "2018-08-10"}, "geometry": {"type": "MultiPolygon", "coordinates": [[[[-56.153152, -15.630423], [-56.153128, -15.630368], [-56.153096, -15.630309], [-56.152967, -15.63038], [-56.15283, -15.630457], [-56.152798, -15.630474], [-56.15282, -15.63052], [-56.152837, -15.630551], [-56.152855, -15.630577], [-56.152879, -15.63057], [-56.15296, -15.630529], [-56.153152, -15.630423]]]]}}, {"type": "Feature", "properties": {"mun": "Várzea Grande", "local": "Rua C, Bairro Jardim de Ala", "setor": "MT_VARZEAG_SR_26_CPRM", "tipo": "Inundação", "risco": "Alto", "desc": "Inundação em área de influência na planicie de córrego", "edif": 6, "pess": 24, "data": "2018-08-10"}, "geometry": {"type": "MultiPolygon", "coordinates": [[[[-56.155845, -15.6298], [-56.155704, -15.629842], [-56.155703, -15.629966], [-56.155637, -15.630075], [-56.155683, -15.630209], [-56.15574, -15.630319], [-56.155805, -15.630289], [-56.155869, -15.630141], [-56.155874, -15.630061], [-56.155847, -15.629973], [-56.155865, -15.629877], [-56.155845, -15.6298]]]]}}, {"type": "Feature", "properties": {"mun": "Várzea Grande", "local": "Rua Olinda Bairro Helio Ponce de Arruda", "setor": "MT_VARZEAG_SR_27_CPRM", "tipo": "Inundação", "risco": "Alto", "desc": "Inundação em área de influência na planicie de córrego", "edif": 9, "pess": 36, "data": "2018-08-10"}, "geometry": {"type": "MultiPolygon", "coordinates": [[[[-56.092885, -15.652329], [-56.09279, -15.65235], [-56.092807, -15.652473], [-56.092829, -15.652733], [-56.092887, -15.652925], [-56.092934, -15.653126], [-56.092987, -15.653387], [-56.093073, -15.653601], [-56.09317, -15.653597], [-56.093128, -15.653419], [-56.093084, -15.653294], [-56.09304, -15.653035], [-56.093046, -15.652904], [-56.093004, -15.652797], [-56.092968, -15.65265], [-56.092885, -15.652329]]]]}}, {"type": "Feature", "properties": {"mun": "Várzea Grande", "local": "Rua F 1, Bairro Helio Ponce de Arruda", "setor": "MT_VARZEAG_SR_28_CPRM", "tipo": "Inundação", "risco": "Alto", "desc": "Inundação em área de influência na planicie de córrego", "edif": 3, "pess": 12, "data": "2018-08-10"}, "geometry": {"type": "MultiPolygon", "coordinates": [[[[-56.087448, -15.649918], [-56.087294, -15.64984], [-56.087193, -15.649875], [-56.087222, -15.649943], [-56.087249, -15.649979], [-56.08732, -15.650114], [-56.087335, -15.650213], [-56.087301, -15.65044], [-56.087376, -15.650469], [-56.087478, -15.650427], [-56.087514, -15.650292], [-56.087479, -15.650009], [-56.087448, -15.649918]]]]}}, {"type": "Feature", "properties": {"mun": "Várzea Grande", "local": "Rua da Escola, Distrito de Passagem da Conceição", "setor": "MT_VARZEAG_SR_29_CPRM", "tipo": "Inundação", "risco": "Alto", "desc": "Àrea de influencia da planície de inundação do rio Cuiabá (margem direita)", "edif": 3, "pess": 12, "data": "2018-08-10"}, "geometry": {"type": "MultiPolygon", "coordinates": [[[[-56.141425, -15.567537], [-56.141378, -15.567495], [-56.141286, -15.567619], [-56.141229, -15.567696], [-56.141327, -15.567768], [-56.141447, -15.567691], [-56.141425, -15.567537]]]]}}, {"type": "Feature", "properties": {"mun": "Várzea Grande", "local": "Avenida São Gonçalo, Bairro 3 Marias", "setor": "MT_VARZEAG_SR_30_CPRM", "tipo": "Inundação", "risco": "Alto", "desc": "Alagamento/Inundação em área de influência lagoas, áreas de descargas de córregos", "edif": 5, "pess": 20, "data": "2018-08-10"}, "geometry": {"type": "MultiPolygon", "coordinates": [[[[-56.07572, -15.669294], [-56.075553, -15.669091], [-56.075526, -15.669096], [-56.075484, -15.669111], [-56.075457, -15.669146], [-56.075396, -15.669193], [-56.075431, -15.669227], [-56.075488, -15.669275], [-56.075566, -15.669325], [-56.075662, -15.669327], [-56.07572, -15.669294]]]]}}, {"type": "Feature", "properties": {"mun": "Várzea Grande", "local": "Avenida Central, Bairro Beira Rio", "setor": "MT_VARZEAG_SR_31_CPRM", "tipo": "Inundação", "risco": "Alto", "desc": "Inundação em área de influência na planicie de córrego", "edif": 2, "pess": 8, "data": "2018-08-10"}, "geometry": {"type": "MultiPolygon", "coordinates": [[[[-56.075088, -15.651575], [-56.075136, -15.65138], [-56.075035, -15.651335], [-56.075, -15.65133], [-56.07498, -15.651369], [-56.074961, -15.651419], [-56.07495, -15.651536], [-56.075024, -15.651553], [-56.075052, -15.651566], [-56.075088, -15.651575]]]]}}, {"type": "Feature", "properties": {"mun": "Várzea Grande", "local": "Rua H e Rua Cavalcante, Bairro Agua Vermelha", "setor": "MT_VARZEAG_SR_32_CPRM", "tipo": "Inundação", "risco": "Alto", "desc": "Inundação em área de influência na planicie de córrego", "edif": 4, "pess": 16, "data": "2018-08-10"}, "geometry": {"type": "MultiPolygon", "coordinates": [[[[-56.149628, -15.653125], [-56.149644, -15.653217], [-56.149737, -15.653238], [-56.149834, -15.653205], [-56.150034, -15.653119], [-56.150208, -15.653084], [-56.150219, -15.653042], [-56.150232, -15.652964], [-56.150178, -15.652888], [-56.15009, -15.65291], [-56.149968, -15.652942], [-56.149903, -15.653001], [-56.149782, -15.653068], [-56.149628, -15.653125]]]]}}]}